{"type": "FeatureCollection", "features": [ {"type": "Feature", "properties": {"norad_id": 58662, "name": "TIANMU-1 21", "group": "weather", "lat": -74.53480456366597, "lon": -108.92126817865683, "alt_km": 474.5432621876844, "timestamp": "2025-12-11T20:41:14.731312+00:00", "meta": {"OBJECT_NAME": "TIANMU-1 21", "OBJECT_ID": "2023-208C", "EPOCH": "2025-12-11T13:17:55.142880", "MEAN_MOTION": 15.31521549, "ECCENTRICITY": 0.00059099, "INCLINATION": 97.437, "RA_OF_ASC_NODE": 98.9429, "ARG_OF_PERICENTER": 265.1, "MEAN_ANOMALY": 94.9566, "EPHEMERIS_TYPE": 0, "CLASSIFICATION_TYPE": "U", "NORAD_CAT_ID": 58662, "ELEMENT_SET_NO": 999, "REV_AT_EPOCH": 10881, "BSTAR": 0.00091127616, "MEAN_MOTION_DOT": 0.00027744, "MEAN_MOTION_DDOT": 0}, "tle": {"line1": "1 58662U 23208C   25345.55411045  .00027744  00000+0  91128-3 0  9993", "line2": "2 58662  97.4370  98.9429 0005909 265.1000  94.9566 15.31521549108810"}}, "geometry": {"type": "Point", "coordinates": [-108.92126817865683, -74.53480456366597]}}, {"type": "Feature", "properties": {"norad_id": 58663, "name": "TIANMU-1 22", "group": "weather", "lat": -11.083560327669646, "lon": -84.50647702220226, "alt_km": 487.7828492002036, "timestamp": "2025-12-11T20:41:14.731322+00:00", "meta": {"OBJECT_NAME": "TIANMU-1 22", "OBJECT_ID": "2023-208D", "EPOCH": "2025-12-11T13:33:53.728416", "MEAN_MOTION": 15.27583244, "ECCENTRICITY": 0.00027008, "INCLINATION": 97.4378, "RA_OF_ASC_NODE": 96.664, "ARG_OF_PERICENTER": 293.374, "MEAN_ANOMALY": 66.7215, "EPHEMERIS_TYPE": 0, "CLASSIFICATION_TYPE": "U", "NORAD_CAT_ID": 58663, "ELEMENT_SET_NO": 999, "REV_AT_EPOCH": 10865, "BSTAR": 0.00078352189, "MEAN_MOTION_DOT": 0.00021099, "MEAN_MOTION_DDOT": 0}, "tle": {"line1": "1 58663U 23208D   25345.56520519  .00021099  00000+0  78352-3 0  9993", "line2": "2 58663  97.4378  96.6640 0002700 293.3740  66.7215 15.27583244108654"}}, "geometry": {"type": "Point", "coordinates": [-84.50647702220226, -11.083560327669646]}}, {"type": "Feature", "properties": {"norad_id": 58700, "name": "TIANMU-1 15", "group": "weather", "lat": -30.06387028916981, "lon": 171.68675341661816, "alt_km": 494.56734771792435, "timestamp": "2025-12-11T20:41:14.731332+00:00", "meta": {"OBJECT_NAME": "TIANMU-1 15", "OBJECT_ID": "2024-004A", "EPOCH": "2025-12-11T12:56:40.540704", "MEAN_MOTION": 15.24670451, "ECCENTRICITY": 0.00052437, "INCLINATION": 97.4631, "RA_OF_ASC_NODE": 167.0136, "ARG_OF_PERICENTER": 303.7498, "MEAN_ANOMALY": 56.324, "EPHEMERIS_TYPE": 0, "CLASSIFICATION_TYPE": "U", "NORAD_CAT_ID": 58700, "ELEMENT_SET_NO": 999, "REV_AT_EPOCH": 10716, "BSTAR": 0.00086402607, "MEAN_MOTION_DOT": 0.00021326, "MEAN_MOTION_DDOT": 0}, "tle": {"line1": "1 58700U 24004A   25345.53935811  .00021326  00000+0  86403-3 0  9991", "line2": "2 58700  97.4631 167.0136 0005243 303.7498  56.3240 15.24670451107164"}}, "geometry": {"type": "Point", "coordinates": [171.68675341661816, -30.06387028916981]}}, {"type": "Feature", "properties": {"norad_id": 58701, "name": "TIANMU-1 16", "group": "weather", "lat": 51.65410485830914, "lon": 157.19360685566122, "alt_km": 488.9569694802876, "timestamp": "2025-12-11T20:41:14.731342+00:00", "meta": {"OBJECT_NAME": "TIANMU-1 16", "OBJECT_ID": "2024-004B", "EPOCH": "2025-12-11T15:43:57.898272", "MEAN_MOTION": 15.24408701, "ECCENTRICITY": 0.00045551, "INCLINATION": 97.4571, "RA_OF_ASC_NODE": 166.5191, "ARG_OF_PERICENTER": 301.5248, "MEAN_ANOMALY": 58.5545, "EPHEMERIS_TYPE": 0, "CLASSIFICATION_TYPE": "U", "NORAD_CAT_ID": 58701, "ELEMENT_SET_NO": 999, "REV_AT_EPOCH": 10718, "BSTAR": 0.00042772258, "MEAN_MOTION_DOT": 0.00010423, "MEAN_MOTION_DDOT": 0}, "tle": {"line1": "1 58701U 24004B   25345.65553123  .00010423  00000+0  42772-3 0  9994", "line2": "2 58701  97.4571 166.5191 0004555 301.5248  58.5545 15.24408701107188"}}, "geometry": {"type": "Point", "coordinates": [157.19360685566122, 51.65410485830914]}}, {"type": "Feature", "properties": {"norad_id": 58702, "name": "TIANMU-1 17", "group": "weather", "lat": 42.81453379928511, "lon": -5.892451703852253, "alt_km": 491.45189386235506, "timestamp": "2025-12-11T20:41:14.731352+00:00", "meta": {"OBJECT_NAME": "TIANMU-1 17", "OBJECT_ID": "2024-004C", "EPOCH": "2025-12-11T15:21:49.656384", "MEAN_MOTION": 15.24453325, "ECCENTRICITY": 0.00037248, "INCLINATION": 97.4606, "RA_OF_ASC_NODE": 166.9132, "ARG_OF_PERICENTER": 305.5653, "MEAN_ANOMALY": 54.5237, "EPHEMERIS_TYPE": 0, "CLASSIFICATION_TYPE": "U", "NORAD_CAT_ID": 58702, "ELEMENT_SET_NO": 999, "REV_AT_EPOCH": 10717, "BSTAR": 0.00040629034, "MEAN_MOTION_DOT": 9.909e-05, "MEAN_MOTION_DDOT": 0}, "tle": {"line1": "1 58702U 24004C   25345.64015806  .00009909  00000+0  40629-3 0  9991", "line2": "2 58702  97.4606 166.9132 0003724 305.5653  54.5237 15.24453325107173"}}, "geometry": {"type": "Point", "coordinates": [-5.892451703852253, 42.81453379928511]}}, {"type": "Feature", "properties": {"norad_id": 58703, "name": "TIANMU-1 18", "group": "weather", "lat": -47.74161233332727, "lon": -20.965093460610202, "alt_km": 498.8214515335494, "timestamp": "2025-12-11T20:41:14.731364+00:00", "meta": {"OBJECT_NAME": "TIANMU-1 18", "OBJECT_ID": "2024-004D", "EPOCH": "2025-12-11T14:57:47.109888", "MEAN_MOTION": 15.24448644, "ECCENTRICITY": 0.00030644, "INCLINATION": 97.4622, "RA_OF_ASC_NODE": 167.0917, "ARG_OF_PERICENTER": 305.9073, "MEAN_ANOMALY": 54.188, "EPHEMERIS_TYPE": 0, "CLASSIFICATION_TYPE": "U", "NORAD_CAT_ID": 58703, "ELEMENT_SET_NO": 999, "REV_AT_EPOCH": 10717, "BSTAR": 0.00060770317, "MEAN_MOTION_DOT": 0.00014863, "MEAN_MOTION_DDOT": 0}, "tle": {"line1": "1 58703U 24004D   25345.62346192  .00014863  00000+0  60770-3 0  9999", "line2": "2 58703  97.4622 167.0917 0003064 305.9073  54.1880 15.24448644107170"}}, "geometry": {"type": "Point", "coordinates": [-20.965093460610202, -47.74161233332727]}}, {"type": "Feature", "properties": {"norad_id": 58990, "name": "INSAT-3DS", "group": "weather", "lat": 0.012828921148041584, "lon": 113.19391549545303, "alt_km": 35790.979308536465, "timestamp": "2025-12-11T20:41:14.731376+00:00", "meta": {"OBJECT_NAME": "INSAT-3DS", "OBJECT_ID": "2024-033A", "EPOCH": "2025-12-11T13:54:05.321664", "MEAN_MOTION": 1.00272524, "ECCENTRICITY": 0.0001384, "INCLINATION": 0.0383, "RA_OF_ASC_NODE": 135.3799, "ARG_OF_PERICENTER": 128.2274, "MEAN_ANOMALY": 107.5305, "EPHEMERIS_TYPE": 0, "CLASSIFICATION_TYPE": "U", "NORAD_CAT_ID": 58990, "ELEMENT_SET_NO": 999, "REV_AT_EPOCH": 4518, "BSTAR": 0, "MEAN_MOTION_DOT": -1.49e-06, "MEAN_MOTION_DDOT": 0}, "tle": {"line1": "1 58990U 24033A   25345.57922826 -.00000149  00000+0  00000+0 0  9996", "line2": "2 58990   0.0383 135.3799 0001384 128.2274 107.5305  1.00272524 45188"}}, "geometry": {"type": "Point", "coordinates": [113.19391549545303, 0.012828921148041584]}}, {"type": "Feature", "properties": {"norad_id": 59051, "name": "METEOR-M2 4", "group": "weather", "lat": 4.73866204156963, "lon": -57.940645586063106, "alt_km": 814.425612763338, "timestamp": "2025-12-11T20:41:14.731387+00:00", "meta": {"OBJECT_NAME": "METEOR-M2 4", "OBJECT_ID": "2024-039A", "EPOCH": "2025-12-11T15:36:00.940032", "MEAN_MOTION": 14.22401073, "ECCENTRICITY": 0.00071003, "INCLINATION": 98.6764, "RA_OF_ASC_NODE": 302.576, "ARG_OF_PERICENTER": 1.6485, "MEAN_ANOMALY": 358.4715, "EPHEMERIS_TYPE": 0, "CLASSIFICATION_TYPE": "U", "NORAD_CAT_ID": 59051, "ELEMENT_SET_NO": 999, "REV_AT_EPOCH": 9260, "BSTAR": 6.2325688e-05, "MEAN_MOTION_DOT": 9.5e-07, "MEAN_MOTION_DDOT": 0}, "tle": {"line1": "1 59051U 24039A   25345.65001088  .00000095  00000+0  62326-4 0  9991", "line2": "2 59051  98.6764 302.5760 0007100   1.6485 358.4715 14.22401073 92601"}}, "geometry": {"type": "Point", "coordinates": [-57.940645586063106, 4.73866204156963]}}, {"type": "Feature", "properties": {"norad_id": 60133, "name": "GOES 19", "group": "weather", "lat": -0.007086574864215239, "lon": -44.05973501487514, "alt_km": 35780.86191497583, "timestamp": "2025-12-11T20:41:14.731398+00:00", "meta": {"OBJECT_NAME": "GOES 19", "OBJECT_ID": "2024-119A", "EPOCH": "2025-12-11T13:09:17.112672", "MEAN_MOTION": 1.00271105, "ECCENTRICITY": 0.00012982, "INCLINATION": 0.0232, "RA_OF_ASC_NODE": 117.6032, "ARG_OF_PERICENTER": 193.1835, "MEAN_ANOMALY": 251.8582, "EPHEMERIS_TYPE": 0, "CLASSIFICATION_TYPE": "U", "NORAD_CAT_ID": 60133, "ELEMENT_SET_NO": 999, "REV_AT_EPOCH": 508, "BSTAR": 0, "MEAN_MOTION_DOT": -2.41e-06, "MEAN_MOTION_DDOT": 0}, "tle": {"line1": "1 60133U 24119A   25345.54811473 -.00000241  00000+0  00000+0 0  9998", "line2": "2 60133   0.0232 117.6032 0001298 193.1835 251.8582  1.00271105  5083"}}, "geometry": {"type": "Point", "coordinates": [-44.05973501487514, -0.007086574864215239]}}, {"type": "Feature", "properties": {"norad_id": 65815, "name": "FENGYUN 3H", "group": "weather", "lat": -69.84405734251938, "lon": 80.94418469310796, "alt_km": 833.3462013423832, "timestamp": "2025-12-11T20:41:14.731408+00:00", "meta": {"OBJECT_NAME": "FENGYUN 3H", "OBJECT_ID": "2025-219A", "EPOCH": "2025-12-11T14:25:55.208352", "MEAN_MOTION": 14.19904245, "ECCENTRICITY": 6.088e-05, "INCLINATION": 98.6583, "RA_OF_ASC_NODE": 285.2164, "ARG_OF_PERICENTER": 90.1344, "MEAN_ANOMALY": 269.9902, "EPHEMERIS_TYPE": 0, "CLASSIFICATION_TYPE": "U", "NORAD_CAT_ID": 65815, "ELEMENT_SET_NO": 999, "REV_AT_EPOCH": 1076, "BSTAR": 0.00010628725, "MEAN_MOTION_DOT": 1.82e-06, "MEAN_MOTION_DDOT": 0}, "tle": {"line1": "1 65815U 25219A   25345.60133343  .00000182  00000+0  10629-3 0  9997", "line2": "2 65815  98.6583 285.2164 0000608  90.1344 269.9902 14.19904245 10769"}}, "geometry": {"type": "Point", "coordinates": [80.94418469310796, -69.84405734251938]}}]}